NORAD_CAT_ID,OBJECT_NAME,OBJECT_TYPE,EPOCH,MEAN_MOTION,ECCENTRICITY,INCLINATION,RA_OF_ASC_NODE,ARG_OF_PERICENTER,MEAN_ANOMALY,BSTAR,MEAN_MOTION_DOT,MEAN_MOTION_DDOT,TLE_LINE0,TLE_LINE1,TLE_LINE2,SEMIMAJOR_AXIS,PERIOD,APOGEE,PERIGEE,DECAYED
53569.0,STARLINK-4582,PAYLOAD,2023-04-16 08:44:44,15.08835117,0.0001825,53.2191,125.1567,100.7276,259.3922,1.5292e-05,-4.5e-07,0.0,0 STARLINK-4582,1 53569U 22101AU  23106.36440965 -.00000045  00000-0  15292-4 0  9996,2 53569  53.2191 125.1567 0001825 100.7276 259.3922 15.08835117 37345,6917.895,95.438,541.023,538.498,0.0
53569.0,STARLINK-4582,PAYLOAD,2023-04-17 10:10:55,15.08839213,0.0001461,53.2177,120.3976,87.9174,272.1985,4.0015e-05,3.49e-06,0.0,0 STARLINK-4582,1 53569U 22101AU  23107.42424983  .00000349  00000-0  40015-4 0  9993,2 53569  53.2177 120.3976 0001461  87.9174 272.1985 15.08839213 36835,6917.883,95.438,540.758,538.737,0.0
53569.0,STARLINK-4582,PAYLOAD,2023-04-17 18:07:50,15.08840986,0.0001538,53.2183,118.9109,85.3612,274.7556,6.0949e-05,6.82e-06,0.0,0 STARLINK-4582,1 53569U 22101AU  23107.75544851  .00000682  00000-0  60949-4 0  9994,2 53569  53.2183 118.9109 0001538  85.3612 274.7556 15.08840986 37558,6917.877,95.437,540.806,538.678,0.0
53569.0,STARLINK-4582,PAYLOAD,2023-04-18 06:50:55,15.08843686,0.0001341,53.2172,116.5316,89.2626,270.8519,0.00015417,2.167e-05,0.0,0 STARLINK-4582,1 53569U 22101AU  23108.28536350  .00002167  00000-0  15417-3 0  9997,2 53569  53.2172 116.5316 0001341  89.2626 270.8519 15.08843686 37635,6917.869,95.437,540.662,538.806,0.0
53569.0,STARLINK-4582,PAYLOAD,2023-04-18 17:58:37,15.08842797,0.0001291,53.2169,114.4503,88.0627,272.0513,0.00010383,1.365e-05,0.0,0 STARLINK-4582,1 53569U 22101AU  23108.74904457  .00001365  00000-0  10383-3 0  9991,2 53569  53.2169 114.4503 0001291  88.0627 272.0513 15.08842797 37706,6917.872,95.437,540.63,538.844,0.0
53569.0,STARLINK-4582,PAYLOAD,2023-04-19 06:41:43,15.08838622,0.0001213,53.2176,112.0713,94.3457,265.7674,2.2613e-05,7.2e-07,0.0,0 STARLINK-4582,1 53569U 22101AU  23109.27897018  .00000072  00000-0  22613-4 0  9998,2 53569  53.2176 112.0713 0001213  94.3457 265.7674 15.08838622 37110,6917.885,95.438,540.589,538.91,0.0
53569.0,STARLINK-4582,PAYLOAD,2023-04-19 09:52:29,15.08841801,0.0001503,53.2178,111.4764,94.4941,265.6223,4.3536e-05,4.05e-06,0.0,0 STARLINK-4582,1 53569U 22101AU  23109.41144794  .00000405  00000-0  43536-4 0  9997,2 53569  53.2178 111.4764 0001503  94.4941 265.6223 15.08841801 37800,6917.875,95.437,540.78,538.7,0.0
53569.0,STARLINK-4582,PAYLOAD,2023-04-20 11:18:39,15.088428,0.0001406,53.2179,106.7178,100.0594,260.0557,-3.1911e-05,-7.96e-06,0.0,0 STARLINK-4582,1 53569U 22101AU  23110.47128859 -.00000796  00000-0 -31911-4 0  9998,2 53569  53.2179 106.7178 0001406 100.0594 260.0557 15.08842800 37963,6917.872,95.437,540.709,538.764,0.0
53569.0,STARLINK-4582,PAYLOAD,2023-04-21 11:09:26,15.08835577,0.0001361,53.2174,102.2588,92.8979,267.2169,3.9394e-06,-2.25e-06,0.0,0 STARLINK-4582,1 53569U 22101AU  23111.46489551 -.00000225  00000-0  39394-5 0  9997,2 53569  53.2174 102.2588 0001361  92.8979 267.2169 15.08835577 37443,6917.894,95.438,540.7,538.817,0.0
53569.0,STARLINK-4582,PAYLOAD,2023-04-21 15:55:36,15.08835821,0.0001355,53.2174,101.3667,93.2688,266.8459,2.682e-05,1.39e-06,0.0,0 STARLINK-4582,1 53569U 22101AU  23111.66361516  .00000139  00000-0  26820-4 0  9991,2 53569  53.2174 101.3667 0001355  93.2688 266.8459 15.08835821 38143,6917.893,95.438,540.696,538.821,0.0
53569.0,STARLINK-4582,PAYLOAD,2023-04-22 11:00:12,15.08849504,0.0001256,53.2175,97.7986,91.8457,268.2679,0.00014698,2.053e-05,0.0,0 STARLINK-4582,1 53569U 22101AU  23112.45848318  .00002053  00000-0  14698-3 0  9995,2 53569  53.2175  97.7986 0001256  91.8457 268.2679 15.08849504 37595,6917.851,95.437,540.585,538.847,0.0
53569.0,STARLINK-4582,PAYLOAD,2023-04-23 09:15:37,15.08837269,0.0001059,53.2173,93.6356,95.5688,264.5425,3.2361e-05,2.27e-06,0.0,0 STARLINK-4582,1 53569U 22101AU  23113.38585575  .00000227  00000-0  32361-4 0  9990,2 53569  53.2173  93.6356 0001059  95.5688 264.5425 15.08837269 37736,6917.889,95.438,540.486,539.021,0.0
53569.0,STARLINK-4582,PAYLOAD,2023-04-24 10:41:47,15.08853754,0.0001064,53.218,88.8774,92.9963,267.1151,3.4338e-05,2.59e-06,0.0,0 STARLINK-4582,1 53569U 22101AU  23114.44568347  .00000259  00000-0  34338-4 0  9997,2 53569  53.2180  88.8774 0001064  92.9963 267.1151 15.08853754 37896,6917.838,95.437,540.439,538.967,0.0
53569.0,STARLINK-4582,PAYLOAD,2023-04-25 07:21:47,15.08852473,0.0001026,53.2183,85.0115,82.1362,277.9746,0.00010825,1.436e-05,0.0,0 STARLINK-4582,1 53569U 22101AU  23115.30679854  .00001436  00000-0  10825-3 0  9991,2 53569  53.2183  85.0115 0001026  82.1362 277.9746 15.08852473 38021,6917.842,95.437,540.417,538.997,0.0
53569.0,STARLINK-4582,PAYLOAD,2023-04-26 07:12:36,15.0883312,4.29e-05,53.2183,80.552,125.8378,234.2654,-0.00020019,-3.471e-05,0.0,0 STARLINK-4582,1 53569U 22101AU  23116.30042332 -.00003471  00000-0 -20019-3 0  9996,2 53569  53.2183  80.5520 0000429 125.8378 234.2654 15.08833120 38841,6917.901,95.438,540.063,539.47,0.0
53569.0,STARLINK-4582,PAYLOAD,2023-04-26 15:09:32,15.08835747,2.73e-05,53.2188,79.0661,134.1859,225.9155,-0.00016015,-2.835e-05,0.0,0 STARLINK-4582,1 53569U 22101AU  23116.63162127 -.00002835  00000-0 -16015-3 0  9991,2 53569  53.2188  79.0661 0000273 134.1859 225.9155 15.08835747 38894,6917.893,95.438,539.947,539.57,0.0
53569.0,STARLINK-4582,PAYLOAD,2023-04-27 07:03:23,15.08839141,0.0001039,53.218,76.0922,78.0921,282.0188,-2.8239e-05,-7.37e-06,0.0,0 STARLINK-4582,1 53569U 22101AU  23117.29402211 -.00000737  00000-0 -28239-4 0  9996,2 53569  53.2180  76.0922 0001039  78.0921 282.0188 15.08839141 38320,6917.883,95.438,540.467,539.029,0.0
53569.0,STARLINK-4582,PAYLOAD,2023-04-28 03:43:24,15.08833327,0.0001121,53.2172,72.2272,85.4549,274.6571,0.00019869,2.875e-05,0.0,0 STARLINK-4582,1 53569U 22101AU  23118.15514674  .00002875  00000-0  19869-3 0  9990,2 53569  53.2172  72.2272 0001121  85.4549 274.6571 15.08833327 39129,6917.901,95.438,540.541,538.99,0.0
53569.0,STARLINK-4582,PAYLOAD,2023-04-28 21:12:39,15.08839162,9.78e-05,53.2176,68.9576,82.7414,277.3689,0.00015045,2.107e-05,0.0,0 STARLINK-4582,1 53569U 22101AU  23118.88378582  .00002107  00000-0  15045-3 0  9996,2 53569  53.2176  68.9576 0000978  82.7414 277.3689 15.08839162 38562,6917.883,95.438,540.425,539.071,0.0
53569.0,STARLINK-4582,PAYLOAD,2023-04-29 03:34:11,15.08845577,0.0001159,53.2176,67.7671,87.4061,272.7064,0.00013843,1.916e-05,0.0,0 STARLINK-4582,1 53569U 22101AU  23119.14874176  .00001916  00000-0  13843-3 0  9997,2 53569  53.2176  67.7671 0001159  87.4061 272.7064 15.08845577 39279,6917.863,95.437,540.53,538.927,0.0
53569.0,STARLINK-4582,PAYLOAD,2023-04-30 00:14:12,15.08842132,0.0001306,53.2194,63.9042,98.7501,261.364,-1.916e-05,-5.93e-06,0.0,0 STARLINK-4582,1 53569U 22101AU  23120.00986851 -.00000593  00000-0 -19160-4 0  9999,2 53569  53.2194  63.9042 0001306  98.7501 261.3640 15.08842132 38735,6917.874,95.437,540.642,538.835,0.0
53569.0,STARLINK-4582,PAYLOAD,2023-04-30 06:35:44,15.08847764,0.000114,53.2176,62.7122,91.506,268.6062,3.9229e-05,3.37e-06,0.0,0 STARLINK-4582,1 53569U 22101AU  23120.27482215  .00000337  00000-0  39229-4 0  9995,2 53569  53.2176  62.7122 0001140  91.5060 268.6062 15.08847764 38776,6917.857,95.437,540.51,538.933,0.0
53569.0,STARLINK-4582,PAYLOAD,2023-05-01 03:15:45,15.0884339,0.0001223,53.2182,58.8454,93.0289,267.0843,-8.4051e-06,-4.22e-06,0.0,0 STARLINK-4582,1 53569U 22101AU  23121.13594629 -.00000422  00000-0 -84051-5 0  9995,2 53569  53.2182  58.8454 0001223  93.0289 267.0843 15.08843390 38905,6917.87,95.437,540.581,538.889,0.0
53569.0,STARLINK-4582,PAYLOAD,2023-05-01 04:51:08,15.08844999,0.0001382,53.2191,58.5464,101.8275,258.2872,1.0931e-05,-1.14e-06,0.0,0 STARLINK-4582,1 53569U 22101AU  23121.20218251 -.00000114  00000-0  10931-4 0  9999,2 53569  53.2191  58.5464 0001382 101.8275 258.2872 15.08844999 39587,6917.865,95.437,540.686,538.774,0.0
53569.0,STARLINK-4582,PAYLOAD,2023-05-02 04:41:55,15.08845248,0.0001325,53.2179,54.0867,94.1635,265.9509,8.033e-05,9.91e-06,0.0,0 STARLINK-4582,1 53569U 22101AU  23122.19578301  .00000991  00000-0  80330-4 0  9995,2 53569  53.2179  54.0867 0001325  94.1635 265.9509 15.08845248 39065,6917.864,95.437,540.646,538.813,0.0
53569.0,STARLINK-4582,PAYLOAD,2023-05-02 19:00:24,15.08840351,0.0001353,53.2182,51.4123,87.0473,273.0674,9.566e-05,1.235e-05,0.0,0 STARLINK-4582,1 53569U 22101AU  23122.79194591  .00001235  00000-0  95660-4 0  9990,2 53569  53.2182  51.4123 0001353  87.0473 273.0674 15.08840351 39824,6917.879,95.438,540.68,538.808,0.0
53569.0,STARLINK-4582,PAYLOAD,2023-05-03 01:21:56,15.08845415,0.0001247,53.218,50.2224,91.9006,268.2129,5.5432e-05,5.95e-06,0.0,0 STARLINK-4582,1 53569U 22101AU  23123.05690342  .00000595  00000-0  55432-4 0  9996,2 53569  53.2180  50.2224 0001247  91.9006 268.2129 15.08845415 39860,6917.864,95.437,540.591,538.866,0.0
53569.0,STARLINK-4582,PAYLOAD,2023-05-03 18:51:11,15.08844081,0.0001275,53.2176,46.9517,88.0584,272.0554,2.247e-05,7e-07,0.0,0 STARLINK-4582,1 53569U 22101AU  23123.78554500  .00000070  00000-0  22470-4 0  9995,2 53569  53.2176  46.9517 0001275  88.0584 272.0554 15.08844081 39303,6917.868,95.437,540.615,538.851,0.0
53569.0,STARLINK-4582,PAYLOAD,2023-05-04 04:23:29,15.08846957,0.0001241,53.2178,45.1667,95.9002,264.2131,3.4854e-05,2.67e-06,0.0,0 STARLINK-4582,1 53569U 22101AU  23124.18298091  .00000267  00000-0  34854-4 0  9997,2 53569  53.2178  45.1667 0001241  95.9002 264.2131 15.08846957 40037,6917.859,95.437,540.583,538.866,0.0
53569.0,STARLINK-4582,PAYLOAD,2023-05-04 21:52:44,15.08844102,0.0001169,53.2173,41.8958,84.0843,276.0282,3.1881e-05,2.2e-06,0.0,0 STARLINK-4582,1 53569U 22101AU  23124.91162246  .00000220  00000-0  31881-4 0  9996,2 53569  53.2173  41.8958 0001169  84.0843 276.0282 15.08844102 40149,6917.868,95.437,540.542,538.924,0.0
